OSCAR 7 (AO-7)          
1 07530U 74089B   26165.25919905 -.00000031  00000+0  98943-4 0  9994
2 07530 101.9901 178.4753 0012540 135.5580 235.9820 12.53698067360153
PHASE 3B (AO-10)        
1 14129U 83058B   26165.45605944  .00000123  00000+0  00000+0 0  9992
2 14129  25.9101 220.0173 6011772 114.9164 317.3873  2.05868899295432
UOSAT 2 (UO-11)         
1 14781U 84021B   26165.46944029  .00001127  00000+0  12034-3 0  9997
2 14781  97.8056 131.0745 0007377 181.6912 178.4282 14.90777278256727
LUSAT (LO-19)           
1 20442U 90005G   26165.53075125  .00000104  00000+0  53972-4 0  9998
2 20442  98.8851 187.2631 0010968 209.2439 150.8132 14.34122471902015
EYESAT A (AO-27)        
1 22825U 93061C   26165.41269183  .00000087  00000+0  50043-4 0  9992
2 22825  98.6881 232.8272 0009514 106.8883 253.3343 14.30941559706603
ITAMSAT (IO-26)         
1 22826U 93061D   26165.46283505  .00000084  00000+0  48466-4 0  9995
2 22826  98.6828 232.7945 0010097  92.1193 268.1146 14.31368412706922
RADIO ROSTO (RS15)      
1 23439U 94085A   26165.54399749 -.00000052  00000+0 -26062-3 0  9994
2 23439  64.8180 307.4910 0155869   4.3656 355.8588 11.27583509295607
JAS-2 (FO-29)           
1 24278U 96046B   26165.57553768  .00000018  00000+0  51039-4 0  9994
2 24278  98.5241  14.8055 0350870 103.1913 260.8616 13.53274188472811
TECHSAT 1B (GO-32)      
1 25397U 98043D   26165.53564160  .00000043  00000+0  38754-4 0  9997
2 25397  99.0066 158.2273 0000913 168.5356 191.5843 14.24427952450957
ISS (ZARYA)             
1 25544U 98067A   26165.48029322  .00008443  00000+0  15998-3 0  9993
2 25544  51.6335 313.4905 0004925 185.2578 174.8360 15.49225904571335
PCSAT (NO-44)           
1 26931U 01043C   26165.57503500  .00000097  00000+0  66993-4 0  9996
2 26931  67.0507 251.0280 0006071 264.5660  95.4750 14.31955265290078
SAUDISAT 1C (SO-50)     
1 27607U 02058C   26165.32313440  .00000923  00000+0  12619-3 0  9992
2 27607  64.5509 137.8468 0075333 263.0043  96.2490 14.83041320264030
CUTE-1 (CO-55)          
1 27844U 03031E   26165.50824594  .00000252  00000+0  12810-3 0  9992
2 27844  98.6736 174.1008 0009350 185.7557 174.3516 14.24334231191298
CUBESAT XI-IV (CO-57)   
1 27848U 03031J   26165.28450992  .00000215  00000+0  11362-3 0  9998
2 27848  98.6766 173.5948 0008829 205.9293 154.1445 14.23619426190964
MOZHAETS 4 (RS22)       
1 27939U 03042A   26165.63685157  .00001104  00000+0  17832-3 0  9999
2 27939  98.3464 349.9238 0009977 278.9348 169.9978 14.73464228215173
CUBESAT XI-V            
1 28895U 05043F   26165.41295821  .00001277  00000+0  20872-3 0  9994
2 28895  98.2981 320.9765 0013477 209.8611 150.1828 14.72624914101346
CUTE-1.7+APD II (CO-65) 
1 32785U 08021C   26165.59713032  .00004312  00000+0  27344-3 0  9998
2 32785  97.8270 146.9618 0010105  47.3580 312.8498 15.09431607984809
SEEDS II (CO-66)        
1 32791U 08021J   26165.52414191  .00017043  00000+0  54220-3 0  9990
2 32791  97.7508 163.2945 0001462  13.0182 347.1096 15.32671054986881
YUBILEINY (RS30)        
1 32953U 08025A   26165.60364315  .00000065  00000+0  39793-3 0  9999
2 32953  82.5043 357.0483 0018963 319.7561  40.2114 12.43179408819374
KKS-1 (KISEKI)          
1 33499U 09002H   26165.49048004  .00001213  00000+0  15567-3 0  9991
2 33499  98.1192  87.8899 0006663 306.3438  53.7160 14.83117852935792
SWISSCUBE               
1 35932U 09051B   26165.22670745  .00000895  00000+0  18634-3 0  9996
2 35932  98.4040  73.0633 0005786 213.5244 146.5592 14.62476649888722
BEESAT-1                
1 35933U 09051C   26165.57686896  .00000734  00000+0  15709-3 0  9991
2 35933  98.3967  73.0606 0004089 227.0338 133.0520 14.61716764888804
ITUPSAT1                
1 35935U 09051E   26165.22290826  .00000683  00000+0  15098-3 0  9993
2 35935  98.4052  71.8963 0006164 244.9503 115.1057 14.60436749888304
XIWANG-1 (HOPE-1)       
1 36122U 09072B   26165.58391171 -.00000151  00000+0 -27787-3 0  9999
2 36122 100.4021 119.4573 0006850 237.9658 122.0790 13.16439189792669
O/OREOS (USA 219)       
1 37224U 10062C   26165.51735977  .00002184  00000+0  21177-3 0  9996
2 37224  71.9714  86.3868 0012483  68.8992 291.3512 14.93734489116247
JUGNU                   
1 37839U 11058B   26165.13992560  .00000401  00000+0  70161-4 0  9993
2 37839  19.9620 326.9419 0018614  42.7337 118.6103 14.13775965758591
SRMSAT                  
1 37841U 11058D   26165.48601053  .00000355  00000+0  48806-4 0  9997
2 37841  19.9719  75.8168 0011843 173.9008   0.9019 14.11575039757432
STRAND-1                
1 39090U 13009E   26165.48000094  .00000242  00000+0  95730-4 0  9994
2 39090  98.3921 345.7811 0007605 234.4727 125.5751 14.37161905696678
ZACUBE-1 (TSHEPISOSAT)  
1 39417U 13066B   26165.47443580  .00003221  00000+0  25184-3 0  9995
2 39417  97.8083 127.7968 0040509 257.1667 102.5029 15.01175277680327
GOMX-1                  
1 39430U 13066Q   26165.59841078  .00002505  00000+0  37875-3 0  9991
2 39430  97.6484   6.2252 0130209  85.7861 275.8214 14.69453911669537
